SL-3 R/B                
1 13403U 82079B   26050.61868502  .00005830  00000+0  23416-3 0  9990
2 13403  81.1451 214.4093 0024331 226.2858 133.6361 15.24505217374944
SL-14 R/B               
1 13553U 82092B   26050.40466038  .00000496  00000+0  52979-4 0  9996
2 13553  82.5711 158.4972 0020403   6.3394  61.5623 14.86645829326213
SL-3 R/B                
1 13819U 83010B   26050.37926987  .00014413  00000+0  29628-3 0  9990
2 13819  81.1038  24.6820 0018611 108.6215 251.7053 15.45654290355116
SL-3 R/B                
1 14208U 83075B   26050.53686721  .00010924  00000+0  29321-3 0  9994
2 14208  97.6132  54.4350 0019904 297.4996  62.4225 15.37934807327364
COSMOS 1536             
1 14699U 84013A   26050.20034976  .00004777  00000+0  19802-3 0  9996
2 14699  82.5462 126.2245 0013889 353.5622   6.5434 15.23560470269805
SL-14 R/B               
1 14820U 84027B   26050.57926645  .00000391  00000+0  41861-4 0  9999
2 14820  82.5384 262.0027 0018891  37.4011 322.8516 14.85956971244944
SL-8 R/B                
1 15483U 85006B   26050.17049155  .00000168  00000+0  64346-4 0  9996
2 15483  74.0454 295.2269 0019167 216.9351 311.6076 14.37773526151368
SL-12 R/B(2)            
1 15772U 85042D   26050.63300081  .00000151  00000+0  89383-4 0  9996
2 15772  71.1080 125.8789 0034242 157.3989 354.3691 14.21977308111824
SL-14 R/B               
1 15945U 85069B   26050.43489000  .00000501  00000+0  53928-4 0  9999
2 15945  82.5251  42.1001 0017228 251.5766 108.3578 14.86410117170125
SL-16 R/B               
1 16182U 85097B   26050.55967200  .00000050  00000+0  48959-4 0  9997
2 16182  71.0028 178.7197 0009720 280.3931 155.9907 14.16594480 84664
SL-14 R/B               
1 16496U 86006B   26050.61864080  .00000563  00000+0  57238-4 0  9994
2 16496  82.5247 276.7483 0075953 333.7075  26.0293 14.86790026146523
COSMOS 1743             
1 16719U 86034A   26050.52803102  .00031296  00000+0  42936-3 0  9996
2 16719  82.5303  92.8723 0004022  20.2545 339.8868 15.57178113177429
