CCSDS_OMM_VERS = 2.0
CREATION_DATE  = 
ORIGINATOR     = 

OBJECT_NAME    = SL-3 R/B
OBJECT_ID      = 1982-079B
CENTER_NAME    = EARTH
REF_FRAME      = TEME
TIME_SYSTEM    = UTC
MEAN_ELEMENT_THEORY = SGP/SGP4

EPOCH          = 2026-02-19T14:50:54.385728
MEAN_MOTION    = 15.24505217
ECCENTRICITY   = .00243319
INCLINATION    = 81.1451
RA_OF_ASC_NODE = 214.4093
ARG_OF_PERICENTER = 226.2858
MEAN_ANOMALY   = 133.6361

EPHEMERIS_TYPE = 0
CLASSIFICATION_TYPE = U
NORAD_CAT_ID   = 13403
ELEMENT_SET_NO = 999
REV_AT_EPOCH   = 37494
BSTAR          = .23416475E-3
MEAN_MOTION_DOT = .583E-4
MEAN_MOTION_DDOT = 0

CCSDS_OMM_VERS = 2.0
CREATION_DATE  = 
ORIGINATOR     = 

OBJECT_NAME    = SL-14 R/B
OBJECT_ID      = 1982-092B
CENTER_NAME    = EARTH
REF_FRAME      = TEME
TIME_SYSTEM    = UTC
MEAN_ELEMENT_THEORY = SGP/SGP4

EPOCH          = 2026-02-19T09:42:42.656832
MEAN_MOTION    = 14.86645829
ECCENTRICITY   = .00204032
INCLINATION    = 82.5711
RA_OF_ASC_NODE = 158.4972
ARG_OF_PERICENTER = 6.3394
MEAN_ANOMALY   = 61.5623

EPHEMERIS_TYPE = 0
CLASSIFICATION_TYPE = U
NORAD_CAT_ID   = 13553
ELEMENT_SET_NO = 999
REV_AT_EPOCH   = 32621
BSTAR          = .52978503E-4
MEAN_MOTION_DOT = .496E-5
MEAN_MOTION_DDOT = 0

CCSDS_OMM_VERS = 2.0
CREATION_DATE  = 
ORIGINATOR     = 

OBJECT_NAME    = SL-3 R/B
OBJECT_ID      = 1983-010B
CENTER_NAME    = EARTH
REF_FRAME      = TEME
TIME_SYSTEM    = UTC
MEAN_ELEMENT_THEORY = SGP/SGP4

EPOCH          = 2026-02-19T09:06:08.916768
MEAN_MOTION    = 15.45654290
ECCENTRICITY   = .00186119
INCLINATION    = 81.1038
RA_OF_ASC_NODE = 24.6820
ARG_OF_PERICENTER = 108.6215
MEAN_ANOMALY   = 251.7053

EPHEMERIS_TYPE = 0
CLASSIFICATION_TYPE = U
NORAD_CAT_ID   = 13819
ELEMENT_SET_NO = 999
REV_AT_EPOCH   = 35511
BSTAR          = .29627647E-3
MEAN_MOTION_DOT = .14413E-3
MEAN_MOTION_DDOT = 0

CCSDS_OMM_VERS = 2.0
CREATION_DATE  = 
ORIGINATOR     = 

OBJECT_NAME    = SL-3 R/B
OBJECT_ID      = 1983-075B
CENTER_NAME    = EARTH
REF_FRAME      = TEME
TIME_SYSTEM    = UTC
MEAN_ELEMENT_THEORY = SGP/SGP4

EPOCH          = 2026-02-19T12:53:05.326944
MEAN_MOTION    = 15.37934807
ECCENTRICITY   = .00199045
INCLINATION    = 97.6132
RA_OF_ASC_NODE = 54.4350
ARG_OF_PERICENTER = 297.4996
MEAN_ANOMALY   = 62.4225

EPHEMERIS_TYPE = 0
CLASSIFICATION_TYPE = U
NORAD_CAT_ID   = 14208
ELEMENT_SET_NO = 999
REV_AT_EPOCH   = 32736
BSTAR          = .29320989E-3
MEAN_MOTION_DOT = .10924E-3
MEAN_MOTION_DDOT = 0

CCSDS_OMM_VERS = 2.0
CREATION_DATE  = 
ORIGINATOR     = 

OBJECT_NAME    = COSMOS 1536
OBJECT_ID      = 1984-013A
CENTER_NAME    = EARTH
REF_FRAME      = TEME
TIME_SYSTEM    = UTC
MEAN_ELEMENT_THEORY = SGP/SGP4

EPOCH          = 2026-02-19T04:48:30.219264
MEAN_MOTION    = 15.23560470
ECCENTRICITY   = .00138898
INCLINATION    = 82.5462
RA_OF_ASC_NODE = 126.2245
ARG_OF_PERICENTER = 353.5622
MEAN_ANOMALY   = 6.5434

EPHEMERIS_TYPE = 0
CLASSIFICATION_TYPE = U
NORAD_CAT_ID   = 14699
ELEMENT_SET_NO = 999
REV_AT_EPOCH   = 26980
BSTAR          = .1980178E-3
MEAN_MOTION_DOT = .4777E-4
MEAN_MOTION_DDOT = 0

CCSDS_OMM_VERS = 2.0
CREATION_DATE  = 
ORIGINATOR     = 

OBJECT_NAME    = SL-14 R/B
OBJECT_ID      = 1984-027B
CENTER_NAME    = EARTH
REF_FRAME      = TEME
TIME_SYSTEM    = UTC
MEAN_ELEMENT_THEORY = SGP/SGP4

EPOCH          = 2026-02-19T13:54:08.621280
MEAN_MOTION    = 14.85956971
ECCENTRICITY   = .00188917
INCLINATION    = 82.5384
RA_OF_ASC_NODE = 262.0027
ARG_OF_PERICENTER = 37.4011
MEAN_ANOMALY   = 322.8516

EPHEMERIS_TYPE = 0
CLASSIFICATION_TYPE = U
NORAD_CAT_ID   = 14820
ELEMENT_SET_NO = 999
REV_AT_EPOCH   = 24494
BSTAR          = .41861456E-4
MEAN_MOTION_DOT = .391E-5
MEAN_MOTION_DDOT = 0

CCSDS_OMM_VERS = 2.0
CREATION_DATE  = 
ORIGINATOR     = 

OBJECT_NAME    = SL-8 R/B
OBJECT_ID      = 1985-006B
CENTER_NAME    = EARTH
REF_FRAME      = TEME
TIME_SYSTEM    = UTC
MEAN_ELEMENT_THEORY = SGP/SGP4

EPOCH          = 2026-02-19T04:05:30.469920
MEAN_MOTION    = 14.37773526
ECCENTRICITY   = .00191672
INCLINATION    = 74.0454
RA_OF_ASC_NODE = 295.2269
ARG_OF_PERICENTER = 216.9351
MEAN_ANOMALY   = 311.6076

EPHEMERIS_TYPE = 0
CLASSIFICATION_TYPE = U
NORAD_CAT_ID   = 15483
ELEMENT_SET_NO = 999
REV_AT_EPOCH   = 15136
BSTAR          = .64345687E-4
MEAN_MOTION_DOT = .168E-5
MEAN_MOTION_DDOT = 0

CCSDS_OMM_VERS = 2.0
CREATION_DATE  = 
ORIGINATOR     = 

OBJECT_NAME    = SL-12 R/B(2)
OBJECT_ID      = 1985-042D
CENTER_NAME    = EARTH
REF_FRAME      = TEME
TIME_SYSTEM    = UTC
MEAN_ELEMENT_THEORY = SGP/SGP4

EPOCH          = 2026-02-19T15:11:31.269984
MEAN_MOTION    = 14.21977308
ECCENTRICITY   = .00342426
INCLINATION    = 71.1080
RA_OF_ASC_NODE = 125.8789
ARG_OF_PERICENTER = 157.3989
MEAN_ANOMALY   = 354.3691

EPHEMERIS_TYPE = 0
CLASSIFICATION_TYPE = U
NORAD_CAT_ID   = 15772
ELEMENT_SET_NO = 999
REV_AT_EPOCH   = 11182
BSTAR          = .89383033E-4
MEAN_MOTION_DOT = .151E-5
MEAN_MOTION_DDOT = 0

CCSDS_OMM_VERS = 2.0
CREATION_DATE  = 
ORIGINATOR     = 

OBJECT_NAME    = SL-14 R/B
OBJECT_ID      = 1985-069B
CENTER_NAME    = EARTH
REF_FRAME      = TEME
TIME_SYSTEM    = UTC
MEAN_ELEMENT_THEORY = SGP/SGP4

EPOCH          = 2026-02-19T10:26:14.496000
MEAN_MOTION    = 14.86410117
ECCENTRICITY   = .00172285
INCLINATION    = 82.5251
RA_OF_ASC_NODE = 42.1001
ARG_OF_PERICENTER = 251.5766
MEAN_ANOMALY   = 108.3578

EPHEMERIS_TYPE = 0
CLASSIFICATION_TYPE = U
NORAD_CAT_ID   = 15945
ELEMENT_SET_NO = 999
REV_AT_EPOCH   = 17012
BSTAR          = .53928347E-4
MEAN_MOTION_DOT = .501E-5
MEAN_MOTION_DDOT = 0

CCSDS_OMM_VERS = 2.0
CREATION_DATE  = 
ORIGINATOR     = 

OBJECT_NAME    = SL-16 R/B
OBJECT_ID      = 1985-097B
CENTER_NAME    = EARTH
REF_FRAME      = TEME
TIME_SYSTEM    = UTC
MEAN_ELEMENT_THEORY = SGP/SGP4

EPOCH          = 2026-02-19T13:25:55.660800
MEAN_MOTION    = 14.16594480
ECCENTRICITY   = .00097201
INCLINATION    = 71.0028
RA_OF_ASC_NODE = 178.7197
ARG_OF_PERICENTER = 280.3931
MEAN_ANOMALY   = 155.9907

EPHEMERIS_TYPE = 0
CLASSIFICATION_TYPE = U
NORAD_CAT_ID   = 16182
ELEMENT_SET_NO = 999
REV_AT_EPOCH   = 8466
BSTAR          = .48958882E-4
MEAN_MOTION_DOT = .5E-6
MEAN_MOTION_DDOT = 0

CCSDS_OMM_VERS = 2.0
CREATION_DATE  = 
ORIGINATOR     = 

OBJECT_NAME    = SL-14 R/B
OBJECT_ID      = 1986-006B
CENTER_NAME    = EARTH
REF_FRAME      = TEME
TIME_SYSTEM    = UTC
MEAN_ELEMENT_THEORY = SGP/SGP4

EPOCH          = 2026-02-19T14:50:50.565120
MEAN_MOTION    = 14.86790026
ECCENTRICITY   = .00759531
INCLINATION    = 82.5247
RA_OF_ASC_NODE = 276.7483
ARG_OF_PERICENTER = 333.7075
MEAN_ANOMALY   = 26.0293

EPHEMERIS_TYPE = 0
CLASSIFICATION_TYPE = U
NORAD_CAT_ID   = 16496
ELEMENT_SET_NO = 999
REV_AT_EPOCH   = 14652
BSTAR          = .57237701E-4
MEAN_MOTION_DOT = .563E-5
MEAN_MOTION_DDOT = 0

CCSDS_OMM_VERS = 2.0
CREATION_DATE  = 
ORIGINATOR     = 

OBJECT_NAME    = COSMOS 1743
OBJECT_ID      = 1986-034A
CENTER_NAME    = EARTH
REF_FRAME      = TEME
TIME_SYSTEM    = UTC
MEAN_ELEMENT_THEORY = SGP/SGP4

EPOCH          = 2026-02-19T12:40:21.880128
MEAN_MOTION    = 15.57178113
ECCENTRICITY   = .00040223
INCLINATION    = 82.5303
RA_OF_ASC_NODE = 92.8723
ARG_OF_PERICENTER = 20.2545
MEAN_ANOMALY   = 339.8868

EPHEMERIS_TYPE = 0
CLASSIFICATION_TYPE = U
NORAD_CAT_ID   = 16719
ELEMENT_SET_NO = 999
REV_AT_EPOCH   = 17742
BSTAR          = .42936007E-3
MEAN_MOTION_DOT = .31296E-3
MEAN_MOTION_DDOT = 0

